{"type": "FeatureCollection", "features": [ {"type": "Feature", "properties": {"norad_id": 66546, "name": "SHIJIAN-30B", "group": "last-30-days", "lat": 40.699687022149945, "lon": 114.67065441126303, "alt_km": 518.7666483440889, "timestamp": "2025-12-11T18:59:44.810307+00:00", "meta": {"OBJECT_NAME": "SHIJIAN-30B", "OBJECT_ID": "2025-266B", "EPOCH": "2025-12-11T07:22:21.646272", "MEAN_MOTION": 15.15360028, "ECCENTRICITY": 0.00104539, "INCLINATION": 51.7968, "RA_OF_ASC_NODE": 339.5806, "ARG_OF_PERICENTER": 354.2223, "MEAN_ANOMALY": 5.8631, "EPHEMERIS_TYPE": 0, "CLASSIFICATION_TYPE": "U", "NORAD_CAT_ID": 66546, "ELEMENT_SET_NO": 999, "REV_AT_EPOCH": 336, "BSTAR": 0.0011559066, "MEAN_MOTION_DOT": 0.00021864, "MEAN_MOTION_DDOT": 0}, "tle": {"line1": "1 66546U 25266B   25345.30719498  .00021864  00000+0  11559-2 0  9991", "line2": "2 66546  51.7968 339.5806 0010453 354.2223   5.8631 15.15360028  3369"}}, "geometry": {"type": "Point", "coordinates": [114.67065441126303, 40.699687022149945]}}, {"type": "Feature", "properties": {"norad_id": 66547, "name": "SHIJIAN-30C", "group": "last-30-days", "lat": 42.00519619842335, "lon": 112.1457333034243, "alt_km": 519.2609730472432, "timestamp": "2025-12-11T18:59:44.810318+00:00", "meta": {"OBJECT_NAME": "SHIJIAN-30C", "OBJECT_ID": "2025-266C", "EPOCH": "2025-12-11T05:48:03.045888", "MEAN_MOTION": 15.15464324, "ECCENTRICITY": 0.00113489, "INCLINATION": 51.7978, "RA_OF_ASC_NODE": 339.894, "ARG_OF_PERICENTER": 345.5463, "MEAN_ANOMALY": 14.5187, "EPHEMERIS_TYPE": 0, "CLASSIFICATION_TYPE": "U", "NORAD_CAT_ID": 66547, "ELEMENT_SET_NO": 999, "REV_AT_EPOCH": 335, "BSTAR": 0.0010400623, "MEAN_MOTION_DOT": 0.00019699, "MEAN_MOTION_DDOT": 0}, "tle": {"line1": "1 66547U 25266C   25345.24170192  .00019699  00000+0  10401-2 0  9995", "line2": "2 66547  51.7978 339.8940 0011348 345.5463  14.5187 15.15464324  3352"}}, "geometry": {"type": "Point", "coordinates": [112.1457333034243, 42.00519619842335]}}, {"type": "Feature", "properties": {"norad_id": 66548, "name": "CZ-2C R/B", "group": "last-30-days", "lat": -26.93319774304836, "lon": 179.1508680280509, "alt_km": 438.10077094857024, "timestamp": "2025-12-11T18:59:44.810328+00:00", "meta": {"OBJECT_NAME": "CZ-2C R/B", "OBJECT_ID": "2025-266D", "EPOCH": "2025-12-11T05:31:26.281920", "MEAN_MOTION": 15.30129823, "ECCENTRICITY": 0.00839842, "INCLINATION": 52.056, "RA_OF_ASC_NODE": 338.4715, "ARG_OF_PERICENTER": 167.8275, "MEAN_ANOMALY": 192.4767, "EPHEMERIS_TYPE": 0, "CLASSIFICATION_TYPE": "U", "NORAD_CAT_ID": 66548, "ELEMENT_SET_NO": 999, "REV_AT_EPOCH": 338, "BSTAR": 0.00056137737, "MEAN_MOTION_DOT": 0.00018145, "MEAN_MOTION_DDOT": 0}, "tle": {"line1": "1 66548U 25266D   25345.23016530  .00018145  00000+0  56138-3 0  9993", "line2": "2 66548  52.0560 338.4715 0083984 167.8275 192.4767 15.30129823  3382"}}, "geometry": {"type": "Point", "coordinates": [179.1508680280509, -26.93319774304836]}}, {"type": "Feature", "properties": {"norad_id": 66549, "name": "SHIJIAN-28", "group": "last-30-days", "lat": 3.1416043106470104, "lon": -70.79413148348115, "alt_km": 34328.418563314095, "timestamp": "2025-12-11T18:59:44.810347+00:00", "meta": {"OBJECT_NAME": "SHIJIAN-28", "OBJECT_ID": "2025-277A", "EPOCH": "2025-12-01T04:36:42.476256", "MEAN_MOTION": 2.08595383, "ECCENTRICITY": 0.6308324, "INCLINATION": 11.5392, "RA_OF_ASC_NODE": 275.706, "ARG_OF_PERICENTER": 179.9335, "MEAN_ANOMALY": 180.3971, "EPHEMERIS_TYPE": 0, "CLASSIFICATION_TYPE": "U", "NORAD_CAT_ID": 66549, "ELEMENT_SET_NO": 999, "REV_AT_EPOCH": 5, "BSTAR": 0, "MEAN_MOTION_DOT": -3.3e-07, "MEAN_MOTION_DDOT": 0}, "tle": {"line1": "1 66549U 25277A   25335.19215829 -.00000033  00000+0  00000+0 0  9993", "line2": "2 66549  11.5392 275.7060 6308324 179.9335 180.3971  2.08595383    50"}}, "geometry": {"type": "Point", "coordinates": [-70.79413148348115, 3.1416043106470104]}}, {"type": "Feature", "properties": {"norad_id": 66550, "name": "CZ-7A R/B", "group": "last-30-days", "lat": -7.223811583696011, "lon": -119.14598759244973, "alt_km": 18349.710644811934, "timestamp": "2025-12-11T18:59:44.810369+00:00", "meta": {"OBJECT_NAME": "CZ-7A R/B", "OBJECT_ID": "2025-277B", "EPOCH": "2025-12-09T05:27:24.418944", "MEAN_MOTION": 2.57975656, "ECCENTRICITY": 0.71041719, "INCLINATION": 14.4001, "RA_OF_ASC_NODE": 271.6446, "ARG_OF_PERICENTER": 185.6905, "MEAN_ANOMALY": 156.7335, "EPHEMERIS_TYPE": 0, "CLASSIFICATION_TYPE": "U", "NORAD_CAT_ID": 66550, "ELEMENT_SET_NO": 999, "REV_AT_EPOCH": 25, "BSTAR": 0.0029500826, "MEAN_MOTION_DOT": 0.01805656, "MEAN_MOTION_DDOT": 5.50612e-07}, "tle": {"line1": "1 66550U 25277B   25343.22736596  .01805656  55061-6  29501-2 0  9995", "line2": "2 66550  14.4001 271.6446 7104171 185.6905 156.7335  2.57975656   258"}}, "geometry": {"type": "Point", "coordinates": [-119.14598759244973, -7.223811583696011]}}, {"type": "Feature", "properties": {"norad_id": 66551, "name": "USA 568", "group": "last-30-days", "lat": -31.152382630058927, "lon": 38.788295596426266, "alt_km": 268.5026765129278, "timestamp": "2025-12-11T18:59:44.810381+00:00", "meta": {"OBJECT_NAME": "USA 568", "OBJECT_ID": "2024-134K", "EPOCH": "2025-12-02T16:00:03.000096", "MEAN_MOTION": 15.87051116, "ECCENTRICITY": 7.17e-05, "INCLINATION": 53.1571, "RA_OF_ASC_NODE": 236.7807, "ARG_OF_PERICENTER": 110.7411, "MEAN_ANOMALY": 313.9012, "EPHEMERIS_TYPE": 0, "CLASSIFICATION_TYPE": "U", "NORAD_CAT_ID": 66551, "ELEMENT_SET_NO": 999, "REV_AT_EPOCH": 262, "BSTAR": -0.0074303, "MEAN_MOTION_DOT": -0.01709685, "MEAN_MOTION_DDOT": 0}, "tle": {"line1": "1 66551U 24134K   25336.66670139 -.01709685  00000+0 -74303-2 0  9990", "line2": "2 66551  53.1571 236.7807 0000717 110.7411 313.9012 15.87051116  2624"}}, "geometry": {"type": "Point", "coordinates": [38.788295596426266, -31.152382630058927]}}, {"type": "Feature", "properties": {"norad_id": 66554, "name": "GLOBAL-33", "group": "last-30-days", "lat": -28.425187754166142, "lon": -80.5836727364531, "alt_km": 476.5155270453006, "timestamp": "2025-12-11T18:59:44.810391+00:00", "meta": {"OBJECT_NAME": "GLOBAL-33", "OBJECT_ID": "2025-267A", "EPOCH": "2025-12-11T05:29:47.657184", "MEAN_MOTION": 15.31596079, "ECCENTRICITY": 0.00044349, "INCLINATION": 42.021, "RA_OF_ASC_NODE": 65.7147, "ARG_OF_PERICENTER": 43.1565, "MEAN_ANOMALY": 316.9619, "EPHEMERIS_TYPE": 0, "CLASSIFICATION_TYPE": "U", "NORAD_CAT_ID": 66554, "ELEMENT_SET_NO": 999, "REV_AT_EPOCH": 317, "BSTAR": 0.00061052642, "MEAN_MOTION_DOT": 0.00018831, "MEAN_MOTION_DDOT": 0}, "tle": {"line1": "1 66554U 25267A   25345.22902381  .00018831  00000+0  61053-3 0  9992", "line2": "2 66554  42.0210  65.7147 0004434  43.1565 316.9619 15.31596079  3178"}}, "geometry": {"type": "Point", "coordinates": [-80.5836727364531, -28.425187754166142]}}, {"type": "Feature", "properties": {"norad_id": 66555, "name": "ELECTRON KICK STAGE R/B", "group": "last-30-days", "lat": -39.9072360708966, "lon": -5.942910433524098, "alt_km": 472.8968475156262, "timestamp": "2025-12-11T18:59:44.810401+00:00", "meta": {"OBJECT_NAME": "ELECTRON KICK STAGE R/B", "OBJECT_ID": "2025-267B", "EPOCH": "2025-12-11T06:48:14.485536", "MEAN_MOTION": 15.32700314, "ECCENTRICITY": 0.00065912, "INCLINATION": 42.0194, "RA_OF_ASC_NODE": 65.2562, "ARG_OF_PERICENTER": 41.3724, "MEAN_ANOMALY": 318.7612, "EPHEMERIS_TYPE": 0, "CLASSIFICATION_TYPE": "U", "NORAD_CAT_ID": 66555, "ELEMENT_SET_NO": 999, "REV_AT_EPOCH": 318, "BSTAR": 0.0013714431, "MEAN_MOTION_DOT": 0.00044292, "MEAN_MOTION_DDOT": 0}, "tle": {"line1": "1 66555U 25267B   25345.28350099  .00044292  00000+0  13714-2 0  9992", "line2": "2 66555  42.0194  65.2562 0006591  41.3724 318.7612 15.32700314  3183"}}, "geometry": {"type": "Point", "coordinates": [-5.942910433524098, -39.9072360708966]}}, {"type": "Feature", "properties": {"norad_id": 66557, "name": "STARLINK-35699", "group": "last-30-days", "lat": -13.041763727916772, "lon": -38.86541423420358, "alt_km": 415.50237080983334, "timestamp": "2025-12-11T18:59:44.810414+00:00", "meta": {"OBJECT_NAME": "STARLINK-35699", "OBJECT_ID": "2025-268A", "EPOCH": "2025-12-11T06:00:02.999808", "MEAN_MOTION": 15.50618062, "ECCENTRICITY": 0.00019922, "INCLINATION": 43.0001, "RA_OF_ASC_NODE": 129.9094, "ARG_OF_PERICENTER": 256.9229, "MEAN_ANOMALY": 156.1692, "EPHEMERIS_TYPE": 0, "CLASSIFICATION_TYPE": "U", "NORAD_CAT_ID": 66557, "ELEMENT_SET_NO": 999, "REV_AT_EPOCH": 442, "BSTAR": 0.00035474274, "MEAN_MOTION_DOT": 0.00020553, "MEAN_MOTION_DDOT": 0}, "tle": {"line1": "1 66557U 25268A   25345.25003472  .00020553  00000+0  35474-3 0  9994", "line2": "2 66557  43.0001 129.9094 0001992 256.9229 156.1692 15.50618062  4423"}}, "geometry": {"type": "Point", "coordinates": [-38.86541423420358, -13.041763727916772]}}, {"type": "Feature", "properties": {"norad_id": 66558, "name": "STARLINK-35695", "group": "last-30-days", "lat": -14.134162694237132, "lon": -37.58447290538843, "alt_km": 415.1714501349934, "timestamp": "2025-12-11T18:59:44.810427+00:00", "meta": {"OBJECT_NAME": "STARLINK-35695", "OBJECT_ID": "2025-268B", "EPOCH": "2025-12-11T06:00:02.999808", "MEAN_MOTION": 15.5050985, "ECCENTRICITY": 0.00038829, "INCLINATION": 43.0002, "RA_OF_ASC_NODE": 129.9051, "ARG_OF_PERICENTER": 256.6549, "MEAN_ANOMALY": 158.3048, "EPHEMERIS_TYPE": 0, "CLASSIFICATION_TYPE": "U", "NORAD_CAT_ID": 66558, "ELEMENT_SET_NO": 999, "REV_AT_EPOCH": 442, "BSTAR": 0.0007118395, "MEAN_MOTION_DOT": 0.00041546, "MEAN_MOTION_DDOT": 0}, "tle": {"line1": "1 66558U 25268B   25345.25003472  .00041546  00000+0  71184-3 0  9998", "line2": "2 66558  43.0002 129.9051 0003882 256.6549 158.3048 15.50509850  4423"}}, "geometry": {"type": "Point", "coordinates": [-37.58447290538843, -14.134162694237132]}}]}